STARLINK-3451           
1 51749U 22016AM  25117.90413133 -.00000208  00000+0  50090-5 0  9996
2 51749  53.2185 296.9195 0000545  89.5311 270.5744 15.08831332175886
STARLINK-3505           
1 51750U 22016AN  25117.86917998  .00002101  00000+0  15004-3 0  9998
2 51750  53.2179 286.9012 0001425  87.6596 272.4559 15.08845694176028
STARLINK-3506           
1 51751U 22016AP  25117.88020854  .00002152  00000+0  15321-3 0  9995
2 51751  53.2196 286.8550 0000910  85.3200 274.7896 15.08849931176026
STARLINK-3511           
1 51752U 22016AQ  25118.18933644  .00001548  00000+0  11538-3 0  9994
2 51752  53.2169 285.3888 0001216  73.4783 286.6342 15.08831659177194
STARLINK-3507           
1 51753U 22016AR  25117.80662270 -.00002582  00000+0 -14416-3 0  9996
2 51753  53.2166 287.1838 0001319  90.7142 269.4001 15.08848632176012
STARLINK-3457           
1 51754U 22016AS  25117.83508460  .00000120  00000+0  25623-4 0  9997
2 51754  53.2167 286.8020 0001169  89.8532 270.2595 15.08829380176026
STARLINK-3460           
1 51755U 22016AT  25118.19203791  .00004625  00000+0  30826-3 0  9991
2 51755  53.2169 285.4432 0002926  74.6051 285.5264 15.08872206177197
STARLINK-3513           
1 51756U 22016AU  25117.83142964  .00000550  00000+0  52679-4 0  9990
2 51756  53.2172 287.0618 0001296  87.0870 273.0270 15.08835070176020
STARLINK-3459           
1 51757U 22016AV  25117.82870619  .00000733  00000+0  64158-4 0  9993
2 51757  53.2171 287.0822 0001398  85.9091 274.2061 15.08837233176026
STARLINK-3458           
1 51758U 22016AW  25117.88661506 -.00001938  00000+0 -10371-3 0  9990
2 51758  53.2171 286.7645 0001233  94.3138 265.7996 15.08843142177175
STARLINK-3456           
1 51759U 22016AX  25117.82405895  .00001223  00000+0  94890-4 0  9996
2 51759  53.2169 287.0945 0000568  20.5107 339.5908 15.08840129176025
STARLINK-3622           
1 51768U 22017A   25117.92066750 -.00000716  00000+0 -26890-4 0  9994
2 51768  53.2165 316.6603 0001556  82.0900 278.0269 15.08848234176384
STARLINK-3621           
1 51769U 22017B   25117.91331106  .00000914  00000+0  75537-4 0  9994
2 51769  53.2188 316.6942 0001435  81.2955 278.8200 15.08834606176384
STARLINK-3612           
1 51770U 22017C   25117.98323157  .00002336  00000+0  16475-3 0  9995
2 51770  53.2168 316.3809 0000972  86.0982 274.0121 15.08847240176390
STARLINK-3614           
1 51771U 22017D   25117.90965167 -.00000774  00000+0 -30555-4 0  9993
2 51771  53.2180 316.6994 0001401 103.4366 256.6782 15.08820847176383
STARLINK-3623           
1 51772U 22017E   25117.90226414  .00000329  00000+0  38746-4 0  9993
2 51772  53.2175 316.7412 0001441  88.4000 271.7158 15.08840870174926
STARLINK-3624           
1 51773U 22017F   25117.90690034  .00000405  00000+0  43530-4 0  9999
2 51773  53.2175 316.6937 0001251  93.0214 267.0921 15.08837830174935
STARLINK-3629           
1 51774U 22017G   25117.89490432  .00000545  00000+0  52349-4 0  9991
2 51774  53.2170 316.7740 0001415  94.5897 265.5257 15.08839452174891
STARLINK-3620           
1 51775U 22017H   25117.90594888  .00001405  00000+0  10636-3 0  9992
2 51775  53.2173 316.7263 0001238  87.4345 272.6789 15.08838406174939
STARLINK-3608           
1 51776U 22017J   25117.89122948  .00001427  00000+0  10775-3 0  9993
2 51776  53.2171 316.7940 0001470  91.1010 269.0150 15.08838935176389
STARLINK-3625           
1 51777U 22017K   25117.89585845  .00000917  00000+0  75677-4 0  9999
2 51777  53.2173 316.7413 0001386  96.6194 263.4956 15.08839467174927
STARLINK-3615           
1 51778U 22017L   25117.89949303  .00002308  00000+0  16307-3 0  9993
2 51778  53.2168 306.6308 0001264  96.3762 263.7374 15.08835727174883
STARLINK-3611           
1 51779U 22017M   25117.89218774 -.00000370  00000+0 -51619-5 0  9991
2 51779  53.2171 316.8379 0001486  96.5184 263.5977 15.08841360176389
STARLINK-3617           
1 51780U 22017N   25117.94274643  .00002155  00000+0  15344-3 0  9990
2 51780  53.2169 316.5526 0001361  88.8709 271.2439 15.08841940174750
STARLINK-3580           
1 51781U 22017P   25117.94642004 -.00001716  00000+0 -89747-4 0  9994
2 51781  53.2178 316.5063 0001587  84.5716 275.5457 15.08828933176406
STARLINK-3616           
1 51782U 22017Q   25117.98232117  .00001415  00000+0  10697-3 0  9990
2 51782  53.2162 326.5389 0001454  95.6705 264.4453 15.08845347176250
STARLINK-3628           
1 51783U 22017R   25117.95106843  .00000659  00000+0  59504-4 0  9994
2 51783  53.2175 316.5713 0001464  90.9210 269.1950 15.08841161174752
STARLINK-3632           
1 51784U 22017S   25117.30150791  .00001947  00000+0  14035-3 0  9995
2 51784  53.2180 329.4420 0001334  90.3893 269.7252 15.08841211174515
STARLINK-3646           
1 51785U 22017T   25117.94002185  .00002296  00000+0  16229-3 0  9994
2 51785  53.2169 316.5467 0001341  84.1179 275.9966 15.08844495174751
STARLINK-3638           
1 51786U 22017U   25116.96294063 -.00003996  00000+0 -23297-3 0  9997
2 51786  53.2184 330.9603 0001367  81.0162 279.0985 15.08860718174467
STARLINK-3619           
1 51787U 22017V   25117.90504408  .00002110  00000+0  15060-3 0  9994
2 51787  53.2187 326.7295 0000968  78.8072 281.3029 15.08845096174604
STARLINK-3641           
1 51788U 22017W   25117.94551310 -.00001506  00000+0 -76556-4 0  9991
2 51788  53.2181 326.5502 0001363  95.2891 264.8257 15.08824459176252
STARLINK-3639           
1 51789U 22017X   25117.56278869  .00002145  00000+0  15280-3 0  9999
2 51789  53.2185 328.2680 0001310  87.8674 272.2468 15.08837713174556
STARLINK-3631           
1 51790U 22017Y   25117.94182323  .00001041  00000+0  83506-4 0  9993
2 51790  53.2176 326.5677 0001292  86.1437 273.9703 15.08840493176307
STARLINK-3602           
1 51791U 22017Z   25118.01910325 -.00013698  00000+0 -84428-3 0  9990
2 51791  53.2162 326.2200 0000346 108.4972 251.6058 15.08838112176269
STARLINK-3626           
1 51792U 22017AA  25117.93447093  .00000513  00000+0  50311-4 0  9993
2 51792  53.2189 326.5984 0001387  90.8017 269.3134 15.08835228176302
STARLINK-3633           
1 51793U 22017AB  25117.95014588  .00001775  00000+0  12959-3 0  9991
2 51793  53.2183 326.5395 0001224  85.3733 274.7399 15.08837567176308
STARLINK-3573           
1 51794U 22017AC  25117.92710157 -.00000614  00000+0 -20517-4 0  9997
2 51794  53.2169 326.6302 0001041 144.9791 215.1269 15.08850745176257
STARLINK-3586           
1 51795U 22017AD  25117.61801434  .00000512  00000+0  50287-4 0  9995
2 51795  53.2180 328.2213 0001477  89.7061 270.4100 15.08835891176207
STARLINK-3634           
1 51798U 22017AG  25117.91238688  .00004343  00000+0  29077-3 0  9994
2 51798  53.2176 326.6963 0001476  86.0421 274.0739 15.08841119176295
STARLINK-3637           
1 51799U 22017AH  25117.98966642  .00000175  00000+0  29111-4 0  9999
2 51799  53.2180 326.3491 0001367  96.4942 263.6206 15.08839685176261
STARLINK-3592           
1 51801U 22017AK  25117.91974985  .00000469  00000+0  47569-4 0  9998
2 51801  53.2168 326.6683 0001685  75.3165 284.8014 15.08837859176255
STARLINK-3557           
1 51802U 22017AL  25117.91668981  .00125970  00000+0  56051-2 0  9994
2 51802  53.2093 323.3182 0004557 181.8409 351.3134 15.20522610  5889
STARLINK-3544           
1 51803U 22017AM  25117.90870584  .00001669  00000+0  12293-3 0  9997
2 51803  53.2178 326.7151 0001371  85.0953 275.0195 15.08843129176242
STARLINK-3601           
1 51804U 22017AN  25117.92158285  .00002956  00000+0  20372-3 0  9994
2 51804  53.2159 306.6594 0001408  84.0076 276.1077 15.08847882176483
STARLINK-3605           
1 51805U 22017AP  25117.85903496  .00000718  00000+0  63183-4 0  9991
2 51805  53.2174 307.0136 0001425  89.9822 270.1334 15.08843940176560
STARLINK-3606           
1 51807U 22017AR  25117.93906881  .00000710  00000+0  62706-4 0  9995
2 51807  53.2178 316.5779 0001417  88.8728 271.2426 15.08839529176447
STARLINK-3609           
1 51808U 22017AS  25117.92434907  .00001739  00000+0  12730-3 0  9993
2 51808  53.2178 316.6449 0001241  87.9771 272.1363 15.08836769176393
STARLINK-3607           
1 51809U 22017AT  25117.93170625  .00001554  00000+0  11570-3 0  9995
2 51809  53.2185 316.5761 0001452 103.7998 256.3156 15.08838702176393
STARLINK-3613           
1 51810U 22017AU  25117.90320015 -.00013117  00000+0 -80700-3 0  9995
2 51810  53.2159 306.9604 0001287 106.4619 253.6514 15.08866302176521
STARLINK-3569           
1 51811U 22017AV  25117.26562933  .00001483  00000+0  11128-3 0  9991
2 51811  53.2184 319.6037 0001285  82.9425 277.1713 15.08837775176199
STARLINK-3610           
1 51812U 22017AW  25117.93630786  .00000790  00000+0  67716-4 0  9993
2 51812  53.2165 306.5894 0001464 101.2719 258.8438 15.08834213176414
STARLINK-3552           
1 51813U 22017AX  25117.91790837  .00001258  00000+0  97103-4 0  9999
2 51813  53.2175 306.7023 0001416  90.9299 269.1856 15.08844914176526
STARLINK-3599           
1 51814U 22017AY  25117.53150333  .00000617  00000+0  56860-4 0  9992
2 51814  53.2169 308.4076 0001493  89.7317 270.3846 15.08839662176357
STARLINK-3604           
1 51815U 22017AZ  25117.93262498  .00001557  00000+0  11586-3 0  9992
2 51815  53.2168 306.6060 0001477  91.7626 268.3535 15.08842349176413
STARLINK-3603           
1 51816U 22017BA  25117.94833277  .00000840  00000+0  70890-4 0  9991
2 51816  53.2174 306.7752 0001193 121.4462 238.6647 15.08836093176462
STARLINK-3542           
1 51852U 22022A   25117.68883000  .00003599  00000+0  24411-3 0  9998
2 51852  53.2189 357.7024 0001658  99.1393 260.9787 15.08840654174050
STARLINK-3539           
1 51853U 22022B   25118.25002315 -.00019291  00000+0 -10215-2 0  9999
2 51853  53.2156 354.7221 0001747  86.3787 302.9441 15.14518554175340
STARLINK-3541           
1 51854U 22022C   25117.95010767  .00001591  00000+0  11802-3 0  9992
2 51854  53.2192 356.5325 0001254  89.8786 270.2350 15.08837029175357
